0 BREEZE-M DEB
1 38647U 08011CW  13285.32988912  .00000518  00000-0  17624-1 0  2526
2 38647 048.7885 193.4281 6387313 243.7180 329.5428 03.05251129 33359
0 BREEZE-M DEB
1 38647U 08011CW  13286.52314091  .00000737  00000-0  26110-1 0  2534
2 38647 048.7882 193.0220 6387628 244.0742 200.8582 03.05248252 33391
0 BREEZE-M DEB
1 38647U 08011CW  13293.90853567  .00000769  00000-0  28221-1 0  2541
2 38647 048.7859 190.5413 6383623 246.1499 036.8160 03.05258128 33611
